OBJECT_NAME,OBJECT_ID,EPOCH,MEAN_MOTION,ECCENTRICITY,INCLINATION,RA_OF_ASC_NODE,ARG_OF_PERICENTER,MEAN_ANOMALY,EPHEMERIS_TYPE,CLASSIFICATION_TYPE,NORAD_CAT_ID,ELEMENT_SET_NO,REV_AT_EPOCH,BSTAR,MEAN_MOTION_DOT,MEAN_MOTION_DDOT
ORBCOMM FM06,1997-084G,2026-06-25T13:20:31.274592,14.47582248,.00003282,45.0150,12.4244,6.6137,22.4505,0,U,25118,999,49560,.36570256E-3,.1214E-4,0
ORBCOMM FM04,1998-007C,2026-06-25T13:06:37.918944,14.35755296,.00415696,107.9627,186.6237,310.4036,49.3481,0,U,25159,999,47779,.3135816E-3,.784E-5,0
ORBCOMM FM19,1998-046C,2026-06-25T09:37:08.415840,14.39507192,.00044087,44.9920,204.5186,315.5673,59.4960,0,U,25415,999,45796,.24449493E-3,.627E-5,0
ORBCOMM FM20,1998-046D,2026-06-25T10:03:08.212320,14.38074913,.00024899,44.9922,212.4464,277.6105,82.4460,0,U,25416,999,45797,.19147357E-3,.443E-5,0
ORBCOMM FM27,1998-053G,2026-06-24T14:45:59.196672,14.39153668,.00016904,45.0061,300.0730,221.9387,138.1332,0,U,25481,999,45130,.27540187E-3,.718E-5,0
ORBCOMM FM32,1999-065C,2026-06-24T22:29:29.419584,14.37139190,.00042622,45.0137,136.5551,80.4655,279.6675,0,U,25982,999,38820,.23221478E-3,.554E-5,0
ORBCOMM FM109,2014-040A,2026-06-25T09:14:47.826528,14.58853571,.00019692,47.0038,52.7267,267.9134,92.1526,0,U,40086,999,63554,.12638561E-3,.426E-5,0
ORBCOMM FM110,2015-081D,2026-06-24T20:13:37.705728,14.58890386,.00025549,47.0030,325.2449,122.0857,238.0278,0,U,41182,999,55874,.15591008E-3,.566E-5,0
ORBCOMM FM118,2015-081E,2026-06-24T16:07:07.448736,14.58884422,.00023303,47.0055,326.3870,70.8338,289.2800,0,U,41183,999,55882,.10370251E-3,.319E-5,0
ORBCOMM FM112,2015-081F,2026-06-25T11:56:53.425248,14.58913169,.00040725,46.9976,230.9484,250.8293,109.2152,0,U,41184,999,56016,.11713716E-3,.383E-5,0
ORBCOMM FM113,2015-081G,2026-06-24T20:36:02.113920,14.58864475,.0002552,46.9996,234.3526,251.1934,108.8675,0,U,41185,999,56005,.86126666E-4,.236E-5,0
ORBCOMM FM108,2015-081J,2026-06-24T22:59:00.841632,14.58881881,.00031379,47.0038,145.4578,251.0039,109.0507,0,U,41187,999,56121,.12507478E-3,.42E-5,0
ORBCOMM FM117,2015-081K,2026-06-25T04:43:54.333696,14.58870148,.000366,46.9999,142.9570,255.2052,104.8429,0,U,41188,999,56129,.92277031E-4,.265E-5,0
ORBCOMM FM116,2015-081L,2026-06-25T12:28:41.229696,14.58892527,.00006445,47.0011,231.2222,150.1988,209.8935,0,U,41189,999,56015,.12318163E-3,.412E-5,0
